$$SOE
2459580.500000000, A.D. 2022-Jan-01 00:00:00.0000, -3.142174049117407E+08, -1.246112045832920E+08, 2.178426998142570E+07,
2459587.500000000, A.D. 2022-Jan-08 00:00:00.0000, -3.100568490463563E+08, -1.358870012524939E+08, 2.017726923387105E+07,
2459594.500000000, A.D. 2022-Jan-15 00:00:00.0000, -3.055104516136855E+08, -1.469936853962568E+08, 1.854515626090724E+07,
2459601.500000000, A.D. 2022-Jan-22 00:00:00.0000, -3.005852500446877E+08, -1.579181012350115E+08, 1.689004590441924E+07,
2459608.500000000, A.D. 2022-Jan-29 00:00:00.0000, -2.952887341187293E+08, -1.686474300199999E+08, 1.521406820980144E+07,
2459615.500000000, A.D. 2022-Feb-05 00:00:00.0000, -2.896288301667156E+08, -1.791692055195979E+08, 1.351936508625173E+07,
2459622.500000000, A.D. 2022-Feb-12 00:00:00.0000, -2.836138826923682E+08, -1.894713294869349E+08, 1.180808674844484E+07,
2459629.500000000, A.D. 2022-Feb-19 00:00:00.0000, -2.772526348098597E+08, -1.995420847405060E+08, 1.008238826253977E+07,
2459636.500000000, A.D. 2022-Feb-26 00:00:00.0000, -2.705542088767681E+08, -2.093701465854098E+08, 8.344426264392719E+06,
2459643.500000000, A.D. 2022-Mar-05 00:00:00.0000, -2.635280872285058E+08, -2.189445932040959E+08, 6.596355790508568E+06,
2459650.500000000, A.D. 2022-Mar-12 00:00:00.0000, -2.561840928591525E+08, -2.282549150997751E+08, 4.840327200889394E+06,
2459657.500000000, A.D. 2022-Mar-19 00:00:00.0000, -2.485323700432855E+08, -2.372910235817683E+08, 3.078483194039047E+06,
2459664.500000000, A.D. 2022-Mar-26 00:00:00.0000, -2.405833649348311E+08, -2.460432583145217E+08, 1.312955915631086E+06,
2459671.500000000, A.D. 2022-Apr-02 00:00:00.0000, -2.323478061238494E+08, -2.545023940051217E+08, -4.541358464327157E+05,
2459678.500000000, A.D. 2022-Apr-09 00:00:00.0000, -2.238366849222609E+08, -2.626596462527174E+08, -2.220689402255282E+06,
2459685.500000000, A.D. 2022-Apr-16 00:00:00.0000, -2.150612350658723E+08, -2.705066759438881E+08, -3.984620812737167E+06,
2459692.500000000, A.D. 2022-Apr-23 00:00:00.0000, -2.060329131499529E+08, -2.780355911512449E+08, -5.743867248812899E+06,
2459699.500000000, A.D. 2022-Apr-30 00:00:00.0000, -1.967633817166719E+08, -2.852389488200398E+08, -7.496389068823844E+06,
2459706.500000000, A.D. 2022-May-07 00:00:00.0000, -1.872644919766634E+08, -2.921097582545235E+08, -9.240172056607783E+06,
2459713.500000000, A.D. 2022-May-14 00:00:00.0000, -1.775482648155334E+08, -2.986414834018963E+08, -1.097322969994105E+07,
2459720.500000000, A.D. 2022-May-21 00:00:00.0000, -1.676268721489943E+08, -3.048280432078347E+08, -1.269360526139182E+07,
2459727.500000000, A.D. 2022-May-28 00:00:00.0000, -1.575126191304278E+08, -3.106638110341824E+08, -1.439937367632842E+07,
2459734.500000000, A.D. 2022-Jun-04 00:00:00.0000, -1.472179269523872E+08, -3.161436134853248E+08, -1.608864332949427E+07,
2459741.500000000, A.D. 2022-Jun-11 00:00:00.0000, -1.367553161116769E+08, -3.212627286794504E+08, -1.775955772418493E+07,
2459748.500000000, A.D. 2022-Jun-18 00:00:00.0000, -1.261373901130417E+08, -3.260168839949350E+08, -1.941029704819502E+07,
2459755.500000000, A.D. 2022-Jun-25 00:00:00.0000, -1.153768195969813E+08, -3.304022533701642E+08, -2.103907964433624E+07,
2459762.500000000, A.D. 2022-Jul-02 00:00:00.0000, -1.044863267723426E+08, -3.344154542656693E+08, -2.264416340610990E+07,
2459769.500000000, A.D. 2022-Jul-09 00:00:00.0000, -9.347866977591333E+07, -3.380535441517596E+08, -2.422384712312175E+07,
2459776.500000000, A.D. 2022-Jul-16 00:00:00.0000, -8.236662702367847E+07, -3.413140154760036E+08, -2.577647168601203E+07,
2459783.500000000, A.D. 2022-Jul-23 00:00:00.0000, -7.116298375783750E+07, -3.441947890665453E+08, -2.730042094605960E+07,
2459790.500000000, A.D. 2022-Jul-30 00:00:00.0000, -5.988052070665082E+07, -3.466942093572780E+08, -2.879412251443107E+07,
2459797.500000000, A.D. 2022-Aug-06 00:00:00.0000, -4.853200125707828E+07, -3.488110408210413E+08, -3.025604878167805E+07,
2459804.500000000, A.D. 2022-Aug-13 00:00:00.0000, -3.713015796162952E+07, -3.505444628907458E+08, -3.168471786033034E+07,
2459811.500000000, A.D. 2022-Aug-20 00:00:00.0000, -2.568767994543132E+07, -3.518940639032769E+08, -3.307869435106073E+07,
2459818.500000000, A.D. 2022-Aug-27 00:00:00.0000, -1.421720114018054E+07, -3.528598348219945E+08, -3.443659000129972E+07,
2459825.500000000, A.D. 2022-Sep-03 00:00:00.0000, -2.731289090441994E+06, -3.534421628755509E+08, -3.575706429130767E+07,
2459832.500000000, A.D. 2022-Sep-10 00:00:00.0000, 8.757565766385516E+06, -3.536418251140757E+08, -3.703882495726396E+07,
2459839.500000000, A.D. 2022-Sep-17 00:00:00.0000, 2.023696038685774E+07, -3.534599819086511E+08, -3.828062845772408E+07,
2459846.500000000, A.D. 2022-Sep-24 00:00:00.0000, 3.169458904763716E+07, -3.528981704698704E+08, -3.948128039699459E+07,
2459853.500000000, A.D. 2022-Oct-01 00:00:00.0000, 4.311825316278811E+07, -3.519582984324012E+08, -4.063963593320256E+07,
2459860.500000000, A.D. 2022-Oct-08 00:00:00.0000, 5.449587141109878E+07, -3.506426370059903E+08, -4.175460016953760E+07,
2459867.500000000, A.D. 2022-Oct-15 00:00:00.0000, 6.581548925359931E+07, -3.489538125132468E+08, -4.282512834875834E+07,
2459874.500000000, A.D. 2022-Oct-22 00:00:00.0000, 7.706528567266691E+07, -3.468947980137539E+08, -4.385022579171842E+07,
2459881.500000000, A.D. 2022-Oct-29 00:00:00.0000, 8.823357964580965E+07, -3.444689076217669E+08, -4.482894802427718E+07,
2459888.500000000, A.D. 2022-Nov-05 00:00:00.0000, 9.930883847008033E+07, -3.416797907921610E+08, -4.576040106487934E+07,
2459895.500000000, A.D. 2022-Nov-12 00:00:00.0000, 1.102796859882286E+08, -3.385314253232954E+08, -4.664374159274468E+07,
2459902.500000000, A.D. 2022-Nov-19 00:00:00.0000, 1.211349100128790E+08, -3.350281100446422E+08, -4.747817701214495E+07,
2459909.500000000, A.D. 2022-Nov-26 00:00:00.0000, 1.318634692266486E+08, -3.311744575989574E+08, -4.826296547268623E+07,
2459916.500000000, A.D. 2022-Dec-03 00:00:00.0000, 1.424544997389223E+08, -3.269753873420770E+08, -4.899741586494738E+07,
2459923.500000000, A.D. 2022-Dec-10 00:00:00.0000, 1.528973213572828E+08, -3.224361183508881E+08, -4.968088779662995E+07,
2459930.500000000, A.D. 2022-Dec-17 00:00:00.0000, 1.631814436090322E+08, -3.175621625691860E+08, -5.031279155490094E+07,
2459937.500000000, A.D. 2022-Dec-24 00:00:00.0000, 1.732965716340355E+08, -3.123593181573608E+08, -5.089258807080062E+07,
2459944.500000000, A.D. 2022-Dec-31 00:00:00.0000, 1.832326123220744E+08, -3.068336629372667E+08, -5.141978891028297E+07,
2459951.500000000, A.D. 2023-Jan-07 00:00:00.0000, 1.929796808364065E+08, -3.009915469712170E+08, -5.189395622619955E+07,
2459958.500000000, A.D. 2023-Jan-14 00:00:00.0000, 2.025281055758457E+08, -2.948395837828693E+08, -5.231470245314434E+07,
2459965.500000000, A.D. 2023-Jan-21 00:00:00.0000, 2.118684309471624E+08, -2.883846433973807E+08, -5.268168994845150E+07,
2459972.500000000, A.D. 2023-Jan-28 00:00:00.0000, 2.209914216302707E+08, -2.816338473998832E+08, -5.299463093443035E+07,
2459979.500000000, A.D. 2023-Feb-04 00:00:00.0000, 2.298880681409428E+08, -2.745945629878855E+08, -5.325328747734664E+07,
2459986.500000000, A.D. 2023-Feb-11 00:00:00.0000, 2.385495919073800E+08, -2.672743962121351E+08, -5.345747135550708E+07,
2459993.500000000, A.D. 2023-Feb-18 00:00:00.0000, 2.469674498083834E+08, -2.596811852267761E+08, -5.360704387853371E+07,
2460000.500000000, A.D. 2023-Feb-25 00:00:00.0000, 2.551333384473372E+08, -2.518229937065591E+08, -5.370191569563171E+07,
2460007.500000000, A.D. 2023-Mar-04 00:00:00.0000, 2.630391982758026E+08, -2.437081044078347E+08, -5.374204660120291E+07,
2460014.500000000, A.D. 2023-Mar-11 00:00:00.0000, 2.706772176062196E+08, -2.353450128681980E+08, -5.372744534084328E+07,
2460021.500000000, A.D. 2023-Mar-18 00:00:00.0000, 2.780398365700172E+08, -2.267424212885228E+08, -5.365816942622973E+07,
2460028.500000000, A.D. 2023-Mar-25 00:00:00.0000, 2.851197512330807E+08, -2.179092326364881E+08, -5.353432498122895E+07,
2460035.500000000, A.D. 2023-Apr-01 00:00:00.0000, 2.919099183041225E+08, -2.088545445696416E+08, -5.335606662614988E+07,
2460042.500000000, A.D. 2023-Apr-08 00:00:00.0000, 2.984035598332937E+08, -1.995876419479558E+08, -5.312359724438343E+07,
2460049.500000000, A.D. 2023-Apr-15 00:00:00.0000, 3.045941655729417E+08, -1.901179890384436E+08, -5.283716750795612E+07,
2460056.500000000, A.D. 2023-Apr-22 00:00:00.0000, 3.104754948137513E+08, -1.804552244556167E+08, -5.249707557677179E+07,
2460063.500000000, A.D. 2023-Apr-29 00:00:00.0000, 3.160415804363759E+08, -1.706091565737121E+08, -5.210366703762668E+07,
2460070.500000000, A.D. 2023-May-06 00:00:00.0000, 3.212867334257199E+08, -1.605897576200544E+08, -5.165733477589376E+07,
2460077.500000000, A.D. 2023-May-13 00:00:00.0000, 3.262055468776138E+08, -1.504071573345180E+08, -5.115851876328748E+07,
2460084.500000000, A.D. 2023-May-20 00:00:00.0000, 3.307928997370416E+08, -1.400716366769447E+08, -5.060770582312585E+07,
2460091.500000000, A.D. 2023-May-27 00:00:00.0000, 3.350439604655581E+08, -1.295936216020356E+08, -5.000542939294006E+07,
2460098.500000000, A.D. 2023-Jun-03 00:00:00.0000, 3.389541906991244E+08, -1.189836768654853E+08, -4.935226928723797E+07,
2460105.500000000, A.D. 2023-Jun-10 00:00:00.0000, 3.425193489231592E+08, -1.082524998649975E+08, -4.864885146333498E+07,
2460112.500000000, A.D. 2023-Jun-17 00:00:00.0000, 3.457354942550828E+08, -9.741091456646526E+07, -4.789584780273327E+07,
2460119.500000000, A.D. 2023-Jun-24 00:00:00.0000, 3.485989906523188E+08, -8.646986544854203E+07, -4.709397593169053E+07,
2460126.500000000, A.D. 2023-Jul-01 00:00:00.0000, 3.511065117969396E+08, -7.544041062295429E+07, -4.624399903505170E+07,
2460133.500000000, A.D. 2023-Jul-08 00:00:00.0000, 3.532550449867561E+08, -6.433371329522188E+07, -4.534672544202042E+07,
2460140.500000000, A.D. 2023-Jul-15 00:00:00.0000, 3.550418927586054E+08, -5.316103438754380E+07, -4.440300809767585E+07,
$$EOE